[{"OBJECT_NAME":"A-SEANSAT-PG1","OBJECT_ID":"2023-091AH","EPOCH":"2026-03-09T22:32:06.495648","MEAN_MOTION":15.33422293,"ECCENTRICITY":0.00088895,"INCLINATION":97.5184,"RA_OF_ASC_NODE":136.6191,"ARG_OF_PERICENTER":78.3219,"MEAN_ANOMALY":281.902,"EPHEMERIS_TYPE":0,"CLASSIFICATION_TYPE":"U","NORAD_CAT_ID":57197,"ELEMENT_SET_NO":999,"REV_AT_EPOCH":14948,"BSTAR":0.0007038551,"MEAN_MOTION_DOT":0.00022724,"MEAN_MOTION_DDOT":0},{"OBJECT_NAME":"STARLINK-32026","OBJECT_ID":"2024-117H","EPOCH":"2026-03-09T22:19:35.263200","MEAN_MOTION":15.30198825,"ECCENTRICITY":0.00010035,"INCLINATION":53.1609,"RA_OF_ASC_NODE":35.9807,"ARG_OF_PERICENTER":86.3664,"MEAN_ANOMALY":273.7451,"EPHEMERIS_TYPE":0,"CLASSIFICATION_TYPE":"U","NORAD_CAT_ID":60098,"ELEMENT_SET_NO":999,"REV_AT_EPOCH":9692,"BSTAR":1.3954079e-5,"MEAN_MOTION_DOT":5.4e-7,"MEAN_MOTION_DDOT":0}]
